ORBCOMM FM37            
1 33064U 08031E   25033.59950369  .00003599  00000+0  51161-3 0  9999
2 33064  48.4379 263.0961 0006021 158.5251 241.5883 14.78860423894124
ORBCOMM FM40            
1 33065U 08031F   25033.63919047  .00004916  00000+0  65676-3 0  9993
2 33065  48.4398 249.0800 0007550 170.0915 230.3830 14.80850168894212
VESSELSAT 1             
1 37840U 11058C   25033.62437290  .00000500  00000+0  12821-3 0  9994
2 37840  19.9598 188.1018 0013675 146.0348 214.0933 14.11303122687270
ORBCOMM FM109           
1 40086U 14040A   25033.18692785  .00001913  00000+0  45120-3 0  9994
2 40086  47.0030 293.7066 0001352  71.3921 288.7111 14.57759777561369
ORBCOMM FM107           
1 40087U 14040B   25033.08432056  .00001714  00000+0  40756-3 0  9996
2 40087  47.0059 295.2000 0001268   8.6700 351.4207 14.57821303561426
ORBCOMM FM106           
1 40088U 14040C   25033.58226499  .00003006  00000+0  54005-3 0  9992
2 40088  47.0593 125.6475 0016906 166.1568 193.9789 14.68823301563685
ORBCOMM FM111           
1 40089U 14040D   25033.32465920  .00007271  00000+0  85932-3 0  9990
2 40089  47.0035 354.9506 0031005 268.3844  91.3501 14.85006598570173
ORBCOMM FM104           
1 40090U 14040E   25033.20080678  .00001853  00000+0  45186-3 0  9999
2 40090  47.0067 326.6563 0017119 308.1825  51.7517 14.56273731560945
